LYNK TOWER 6            
1 59123U 24043AB  26068.89488777  .00011440  00000+0  40142-3 0  9996
2 59123  97.5426 204.1954 0009749 232.0253 128.0107 15.29548678111845
STARLINK-34463          
1 64598U 25137E   26068.97233046  .00017580  00000+0  60445-3 0  9998
2 64598  53.1580 334.2407 0000994 128.8730 231.2360 15.30189777 40773
